{"type": "FeatureCollection", "features": [ {"type": "Feature", "properties": {"norad_id": 32184, "name": "FENGYUN 1C DEB", "group": "fengyun-1c-debris", "lat": 36.09854531787942, "lon": -49.99888118949446, "alt_km": 474.9754849858755, "timestamp": "2025-12-10T21:43:22.373743+00:00", "meta": {"OBJECT_NAME": "FENGYUN 1C DEB", "OBJECT_ID": "1999-025CUE", "EPOCH": "2025-12-10T14:52:52.645728", "MEAN_MOTION": 15.43380948, "ECCENTRICITY": 0.00713712, "INCLINATION": 98.1195, "RA_OF_ASC_NODE": 123.7078, "ARG_OF_PERICENTER": 355.6809, "MEAN_ANOMALY": 4.3812, "EPHEMERIS_TYPE": 0, "CLASSIFICATION_TYPE": "U", "NORAD_CAT_ID": 32184, "ELEMENT_SET_NO": 999, "REV_AT_EPOCH": 98371, "BSTAR": 0.0022436977, "MEAN_MOTION_DOT": 0.00111287, "MEAN_MOTION_DDOT": 0}, "tle": {"line1": "1 32184U 99025CUE 25344.62005377  .00111287  00000+0  22437-2 0  9990", "line2": "2 32184  98.1195 123.7078 0071371 355.6809   4.3812 15.43380948983717"}}, "geometry": {"type": "Point", "coordinates": [-49.99888118949446, 36.09854531787942]}}, {"type": "Feature", "properties": {"norad_id": 32185, "name": "FENGYUN 1C DEB", "group": "fengyun-1c-debris", "lat": -81.06441364471189, "lon": -83.47894475441954, "alt_km": 602.2888289584498, "timestamp": "2025-12-10T21:43:22.373753+00:00", "meta": {"OBJECT_NAME": "FENGYUN 1C DEB", "OBJECT_ID": "1999-025CUF", "EPOCH": "2025-12-09T20:33:08.704800", "MEAN_MOTION": 15.03004796, "ECCENTRICITY": 0.0163456, "INCLINATION": 98.904, "RA_OF_ASC_NODE": 189.6861, "ARG_OF_PERICENTER": 24.4993, "MEAN_ANOMALY": 336.3884, "EPHEMERIS_TYPE": 0, "CLASSIFICATION_TYPE": "U", "NORAD_CAT_ID": 32185, "ELEMENT_SET_NO": 999, "REV_AT_EPOCH": 94972, "BSTAR": 0.0039720026, "MEAN_MOTION_DOT": 0.00072177, "MEAN_MOTION_DDOT": 0}, "tle": {"line1": "1 32185U 99025CUF 25343.85635075  .00072177  00000+0  39720-2 0  9996", "line2": "2 32185  98.9040 189.6861 0163456  24.4993 336.3884 15.03004796949727"}}, "geometry": {"type": "Point", "coordinates": [-83.47894475441954, -81.06441364471189]}}, {"type": "Feature", "properties": {"norad_id": 32186, "name": "FENGYUN 1C DEB", "group": "fengyun-1c-debris", "lat": -39.34821206778425, "lon": 43.35675485328275, "alt_km": 1062.0652752177748, "timestamp": "2025-12-10T21:43:22.373763+00:00", "meta": {"OBJECT_NAME": "FENGYUN 1C DEB", "OBJECT_ID": "1999-025CUG", "EPOCH": "2025-12-09T09:24:32.827968", "MEAN_MOTION": 13.76498707, "ECCENTRICITY": 0.02746783, "INCLINATION": 99.6097, "RA_OF_ASC_NODE": 33.8435, "ARG_OF_PERICENTER": 209.4403, "MEAN_ANOMALY": 173.7978, "EPHEMERIS_TYPE": 0, "CLASSIFICATION_TYPE": "U", "NORAD_CAT_ID": 32186, "ELEMENT_SET_NO": 999, "REV_AT_EPOCH": 62564, "BSTAR": 0.0015629135, "MEAN_MOTION_DOT": 1.972e-05, "MEAN_MOTION_DDOT": 0}, "tle": {"line1": "1 32186U 99025CUG 25343.39204662  .00001972  00000+0  15629-2 0  9997", "line2": "2 32186  99.6097  33.8435 0274678 209.4403 173.7978 13.76498707625641"}}, "geometry": {"type": "Point", "coordinates": [43.35675485328275, -39.34821206778425]}}, {"type": "Feature", "properties": {"norad_id": 32187, "name": "FENGYUN 1C DEB", "group": "fengyun-1c-debris", "lat": -62.23026979916881, "lon": 82.49670796168705, "alt_km": 1256.7545030001775, "timestamp": "2025-12-10T21:43:22.373774+00:00", "meta": {"OBJECT_NAME": "FENGYUN 1C DEB", "OBJECT_ID": "1999-025CUH", "EPOCH": "2025-12-09T10:48:10.080288", "MEAN_MOTION": 13.50492866, "ECCENTRICITY": 0.02943458, "INCLINATION": 99.5055, "RA_OF_ASC_NODE": 62.5525, "ARG_OF_PERICENTER": 154.1368, "MEAN_ANOMALY": 269.9368, "EPHEMERIS_TYPE": 0, "CLASSIFICATION_TYPE": "U", "NORAD_CAT_ID": 32187, "ELEMENT_SET_NO": 999, "REV_AT_EPOCH": 66214, "BSTAR": 0.00085725391, "MEAN_MOTION_DOT": 6.79e-06, "MEAN_MOTION_DDOT": 0}, "tle": {"line1": "1 32187U 99025CUH 25343.45011667  .00000679  00000+0  85725-3 0  9994", "line2": "2 32187  99.5055  62.5525 0294345 154.1368 269.9368 13.50492866662142"}}, "geometry": {"type": "Point", "coordinates": [82.49670796168705, -62.23026979916881]}}, {"type": "Feature", "properties": {"norad_id": 32191, "name": "FENGYUN 1C DEB", "group": "fengyun-1c-debris", "lat": -80.65861967750901, "lon": 109.70825573980161, "alt_km": 804.8661816606282, "timestamp": "2025-12-10T21:43:22.373784+00:00", "meta": {"OBJECT_NAME": "FENGYUN 1C DEB", "OBJECT_ID": "1999-025CUM", "EPOCH": "2025-12-07T21:40:40.928736", "MEAN_MOTION": 14.25144424, "ECCENTRICITY": 0.00936775, "INCLINATION": 98.7071, "RA_OF_ASC_NODE": 38.0439, "ARG_OF_PERICENTER": 200.4354, "MEAN_ANOMALY": 159.3067, "EPHEMERIS_TYPE": 0, "CLASSIFICATION_TYPE": "U", "NORAD_CAT_ID": 32191, "ELEMENT_SET_NO": 999, "REV_AT_EPOCH": 64432, "BSTAR": 0.0020420613, "MEAN_MOTION_DOT": 4.976e-05, "MEAN_MOTION_DDOT": 0}, "tle": {"line1": "1 32191U 99025CUM 25341.90325149  .00004976  00000+0  20421-2 0  9995", "line2": "2 32191  98.7071  38.0439 0093677 200.4354 159.3067 14.25144424644328"}}, "geometry": {"type": "Point", "coordinates": [109.70825573980161, -80.65861967750901]}}, {"type": "Feature", "properties": {"norad_id": 32192, "name": "FENGYUN 1C DEB", "group": "fengyun-1c-debris", "lat": -27.559013670904392, "lon": -139.5132099209451, "alt_km": 1089.0338264644788, "timestamp": "2025-12-10T21:43:22.373794+00:00", "meta": {"OBJECT_NAME": "FENGYUN 1C DEB", "OBJECT_ID": "1999-025CUN", "EPOCH": "2025-12-10T02:45:21.500352", "MEAN_MOTION": 13.82509568, "ECCENTRICITY": 0.01815944, "INCLINATION": 98.6529, "RA_OF_ASC_NODE": 215.2024, "ARG_OF_PERICENTER": 169.561, "MEAN_ANOMALY": 190.9397, "EPHEMERIS_TYPE": 0, "CLASSIFICATION_TYPE": "U", "NORAD_CAT_ID": 32192, "ELEMENT_SET_NO": 999, "REV_AT_EPOCH": 92676, "BSTAR": 0.00038665557, "MEAN_MOTION_DOT": 4.37e-06, "MEAN_MOTION_DDOT": 0}, "tle": {"line1": "1 32192U 99025CUN 25344.11483218  .00000437  00000+0  38666-3 0  9993", "line2": "2 32192  98.6529 215.2024 0181594 169.5610 190.9397 13.82509568926765"}}, "geometry": {"type": "Point", "coordinates": [-139.5132099209451, -27.559013670904392]}}, {"type": "Feature", "properties": {"norad_id": 32195, "name": "FENGYUN 1C DEB", "group": "fengyun-1c-debris", "lat": 62.30130607958132, "lon": -29.739737683330294, "alt_km": 881.6710741771067, "timestamp": "2025-12-10T21:43:22.373804+00:00", "meta": {"OBJECT_NAME": "FENGYUN 1C DEB", "OBJECT_ID": "1999-025CUR", "EPOCH": "2025-12-04T06:51:46.584576", "MEAN_MOTION": 14.08440247, "ECCENTRICITY": 0.0068891, "INCLINATION": 98.773, "RA_OF_ASC_NODE": 340.9294, "ARG_OF_PERICENTER": 324.3515, "MEAN_ANOMALY": 35.3064, "EPHEMERIS_TYPE": 0, "CLASSIFICATION_TYPE": "U", "NORAD_CAT_ID": 32195, "ELEMENT_SET_NO": 999, "REV_AT_EPOCH": 63863, "BSTAR": 0.0010039, "MEAN_MOTION_DOT": 1.715e-05, "MEAN_MOTION_DDOT": 0}, "tle": {"line1": "1 32195U 99025CUR 25338.28595584  .00001715  00000+0  10039-2 0  9990", "line2": "2 32195  98.7730 340.9294 0068891 324.3515  35.3064 14.08440247638633"}}, "geometry": {"type": "Point", "coordinates": [-29.739737683330294, 62.30130607958132]}}, {"type": "Feature", "properties": {"norad_id": 32197, "name": "FENGYUN 1C DEB", "group": "fengyun-1c-debris", "lat": 24.91952175794085, "lon": -110.23997736543724, "alt_km": 881.6464257713133, "timestamp": "2025-12-10T21:43:22.373814+00:00", "meta": {"OBJECT_NAME": "FENGYUN 1C DEB", "OBJECT_ID": "1999-025CUT", "EPOCH": "2025-12-10T12:24:38.958912", "MEAN_MOTION": 14.32658071, "ECCENTRICITY": 0.01611781, "INCLINATION": 98.901, "RA_OF_ASC_NODE": 253.5369, "ARG_OF_PERICENTER": 236.4218, "MEAN_ANOMALY": 307.9774, "EPHEMERIS_TYPE": 0, "CLASSIFICATION_TYPE": "U", "NORAD_CAT_ID": 32197, "ELEMENT_SET_NO": 999, "REV_AT_EPOCH": 94391, "BSTAR": 0.0006387504, "MEAN_MOTION_DOT": 1.954e-05, "MEAN_MOTION_DDOT": 0}, "tle": {"line1": "1 32197U 99025CUT 25344.51711758  .00001954  00000+0  63875-3 0  9990", "line2": "2 32197  98.9010 253.5369 0161178 236.4218 307.9774 14.32658071943914"}}, "geometry": {"type": "Point", "coordinates": [-110.23997736543724, 24.91952175794085]}}, {"type": "Feature", "properties": {"norad_id": 32198, "name": "FENGYUN 1C DEB", "group": "fengyun-1c-debris", "lat": -5.011810499248218, "lon": -48.81147577652259, "alt_km": 893.2530677778923, "timestamp": "2025-12-10T21:43:22.373824+00:00", "meta": {"OBJECT_NAME": "FENGYUN 1C DEB", "OBJECT_ID": "1999-025CUU", "EPOCH": "2025-12-05T16:24:25.007328", "MEAN_MOTION": 14.08762004, "ECCENTRICITY": 0.00945405, "INCLINATION": 98.3435, "RA_OF_ASC_NODE": 127.0916, "ARG_OF_PERICENTER": 312.942, "MEAN_ANOMALY": 46.3848, "EPHEMERIS_TYPE": 0, "CLASSIFICATION_TYPE": "U", "NORAD_CAT_ID": 32198, "ELEMENT_SET_NO": 999, "REV_AT_EPOCH": 56846, "BSTAR": 0.0028001199, "MEAN_MOTION_DOT": 4.993e-05, "MEAN_MOTION_DDOT": 0}, "tle": {"line1": "1 32198U 99025CUU 25339.68362277  .00004993  00000+0  28001-2 0  9998", "line2": "2 32198  98.3435 127.0916 0094540 312.9420  46.3848 14.08762004568460"}}, "geometry": {"type": "Point", "coordinates": [-48.81147577652259, -5.011810499248218]}}, {"type": "Feature", "properties": {"norad_id": 32200, "name": "FENGYUN 1C DEB", "group": "fengyun-1c-debris", "lat": 52.34528732077445, "lon": 22.332639536440947, "alt_km": 848.4245619732956, "timestamp": "2025-12-10T21:43:22.373834+00:00", "meta": {"OBJECT_NAME": "FENGYUN 1C DEB", "OBJECT_ID": "1999-025CUW", "EPOCH": "2025-12-10T09:35:54.874752", "MEAN_MOTION": 14.15684712, "ECCENTRICITY": 0.00395277, "INCLINATION": 98.7918, "RA_OF_ASC_NODE": 33.4043, "ARG_OF_PERICENTER": 296.5903, "MEAN_ANOMALY": 63.1223, "EPHEMERIS_TYPE": 0, "CLASSIFICATION_TYPE": "U", "NORAD_CAT_ID": 32200, "ELEMENT_SET_NO": 999, "REV_AT_EPOCH": 94330, "BSTAR": 0.0014384186, "MEAN_MOTION_DOT": 2.798e-05, "MEAN_MOTION_DDOT": 0}, "tle": {"line1": "1 32200U 99025CUW 25344.39994068  .00002798  00000+0  14384-2 0  9995", "line2": "2 32200  98.7918  33.4043 0039527 296.5903  63.1223 14.15684712943303"}}, "geometry": {"type": "Point", "coordinates": [22.332639536440947, 52.34528732077445]}}]}